[{"OBJECT_NAME":"FENGYUN 1C DEB","OBJECT_ID":"1999-025EUT","EPOCH":"2026-04-13T11:30:23.982336","MEAN_MOTION":14.24919696,"ECCENTRICITY":0.0063877,"INCLINATION":99.1343,"RA_OF_ASC_NODE":117.1381,"ARG_OF_PERICENTER":49.2948,"MEAN_ANOMALY":311.3755,"EPHEMERIS_TYPE":0,"CLASSIFICATION_TYPE":"U","NORAD_CAT_ID":38803,"ELEMENT_SET_NO":999,"REV_AT_EPOCH":61945,"BSTAR":0.0011668,"MEAN_MOTION_DOT":2.739e-5,"MEAN_MOTION_DDOT":0},{"OBJECT_NAME":"FENGYUN 1C DEB","OBJECT_ID":"1999-025EUZ","EPOCH":"2026-04-25T06:55:50.322432","MEAN_MOTION":14.18551101,"ECCENTRICITY":0.02206272,"INCLINATION":98.5862,"RA_OF_ASC_NODE":126.3174,"ARG_OF_PERICENTER":302.5922,"MEAN_ANOMALY":55.4124,"EPHEMERIS_TYPE":0,"CLASSIFICATION_TYPE":"U","NORAD_CAT_ID":38809,"ELEMENT_SET_NO":999,"REV_AT_EPOCH":71099,"BSTAR":0.00039233024,"MEAN_MOTION_DOT":9.86e-6,"MEAN_MOTION_DDOT":0},{"OBJECT_NAME":"FENGYUN 1C DEB","OBJECT_ID":"1999-025EVD","EPOCH":"2026-04-26T06:42:10.998144","MEAN_MOTION":14.2048133,"ECCENTRICITY":0.00072655,"INCLINATION":99.3481,"RA_OF_ASC_NODE":126.0277,"ARG_OF_PERICENTER":97.893,"MEAN_ANOMALY":262.307,"EPHEMERIS_TYPE":0,"CLASSIFICATION_TYPE":"U","NORAD_CAT_ID":38813,"ELEMENT_SET_NO":999,"REV_AT_EPOCH":50160,"BSTAR":0.00041366875,"MEAN_MOTION_DOT":8.39e-6,"MEAN_MOTION_DDOT":0},{"OBJECT_NAME":"FENGYUN 1C DEB","OBJECT_ID":"1999-025EVJ","EPOCH":"2026-04-24T10:10:43.243968","MEAN_MOTION":14.39876498,"ECCENTRICITY":0.00881693,"INCLINATION":98.276,"RA_OF_ASC_NODE":171.4336,"ARG_OF_PERICENTER":60.5773,"MEAN_ANOMALY":315.3225,"EPHEMERIS_TYPE":0,"CLASSIFICATION_TYPE":"U","NORAD_CAT_ID":38818,"ELEMENT_SET_NO":999,"REV_AT_EPOCH":69157,"BSTAR":0.00026196708,"MEAN_MOTION_DOT":8.18e-6,"MEAN_MOTION_DDOT":0},{"OBJECT_NAME":"FENGYUN 1C DEB","OBJECT_ID":"1999-025EVQ","EPOCH":"2026-04-23T08:04:56.091648","MEAN_MOTION":14.15733626,"ECCENTRICITY":0.00974579,"INCLINATION":99.2976,"RA_OF_ASC_NODE":257.3866,"ARG_OF_PERICENTER":191.9018,"MEAN_ANOMALY":167.985,"EPHEMERIS_TYPE":0,"CLASSIFICATION_TYPE":"U","NORAD_CAT_ID":38824,"ELEMENT_SET_NO":999,"REV_AT_EPOCH":70998,"BSTAR":0.0019632662,"MEAN_MOTION_DOT":3.988e-5,"MEAN_MOTION_DDOT":0},{"OBJECT_NAME":"FENGYUN 1C DEB","OBJECT_ID":"1999-025EVT","EPOCH":"2026-04-25T07:27:23.995296","MEAN_MOTION":14.3368311,"ECCENTRICITY":0.02134107,"INCLINATION":98.3734,"RA_OF_ASC_NODE":139.1073,"ARG_OF_PERICENTER":275.2958,"MEAN_ANOMALY":82.3912,"EPHEMERIS_TYPE":0,"CLASSIFICATION_TYPE":"U","NORAD_CAT_ID":38827,"ELEMENT_SET_NO":999,"REV_AT_EPOCH":62973,"BSTAR":0.0004541623,"MEAN_MOTION_DOT":1.574e-5,"MEAN_MOTION_DDOT":0},{"OBJECT_NAME":"FENGYUN 1C DEB","OBJECT_ID":"1999-025EVV","EPOCH":"2026-04-22T18:15:03.828672","MEAN_MOTION":14.0950476,"ECCENTRICITY":0.00410748,"INCLINATION":98.741,"RA_OF_ASC_NODE":129.955,"ARG_OF_PERICENTER":21.1224,"MEAN_ANOMALY":339.1631,"EPHEMERIS_TYPE":0,"CLASSIFICATION_TYPE":"U","NORAD_CAT_ID":38829,"ELEMENT_SET_NO":999,"REV_AT_EPOCH":65978,"BSTAR":0.00041637999,"MEAN_MOTION_DOT":6.91e-6,"MEAN_MOTION_DDOT":0},{"OBJECT_NAME":"FENGYUN 1C DEB","OBJECT_ID":"1999-025EVY","EPOCH":"2026-04-24T14:19:25.644576","MEAN_MOTION":14.05018501,"ECCENTRICITY":0.00854444,"INCLINATION":99.2499,"RA_OF_ASC_NODE":166.6502,"ARG_OF_PERICENTER":36.204,"MEAN_ANOMALY":324.4869,"EPHEMERIS_TYPE":0,"CLASSIFICATION_TYPE":"U","NORAD_CAT_ID":38832,"ELEMENT_SET_NO":999,"REV_AT_EPOCH":65623,"BSTAR":0.00053172685,"MEAN_MOTION_DOT":8.39e-6,"MEAN_MOTION_DDOT":0},{"OBJECT_NAME":"FENGYUN 1C DEB","OBJECT_ID":"1999-025EWE","EPOCH":"2026-04-16T16:04:01.135776","MEAN_MOTION":13.84858963,"ECCENTRICITY":0.01727127,"INCLINATION":99.1605,"RA_OF_ASC_NODE":254.397,"ARG_OF_PERICENTER":7.2008,"MEAN_ANOMALY":353.157,"EPHEMERIS_TYPE":0,"CLASSIFICATION_TYPE":"U","NORAD_CAT_ID":39537,"ELEMENT_SET_NO":999,"REV_AT_EPOCH":60985,"BSTAR":0.0010195628,"MEAN_MOTION_DOT":1.248e-5,"MEAN_MOTION_DDOT":0},{"OBJECT_NAME":"FENGYUN 1C DEB","OBJECT_ID":"1999-025EWH","EPOCH":"2026-04-20T02:15:11.048832","MEAN_MOTION":13.37418198,"ECCENTRICITY":0.03998906,"INCLINATION":106.1849,"RA_OF_ASC_NODE":57.934,"ARG_OF_PERICENTER":80.0821,"MEAN_ANOMALY":303.3729,"EPHEMERIS_TYPE":0,"CLASSIFICATION_TYPE":"U","NORAD_CAT_ID":39540,"ELEMENT_SET_NO":999,"REV_AT_EPOCH":70814,"BSTAR":0.0020409382,"MEAN_MOTION_DOT":1.605e-5,"MEAN_MOTION_DDOT":0},{"OBJECT_NAME":"FENGYUN 1C DEB","OBJECT_ID":"1999-025EWL","EPOCH":"2026-04-26T19:35:58.751808","MEAN_MOTION":13.7050703,"ECCENTRICITY":0.03390411,"INCLINATION":99.0259,"RA_OF_ASC_NODE":143.7762,"ARG_OF_PERICENTER":146.5562,"MEAN_ANOMALY":215.7507,"EPHEMERIS_TYPE":0,"CLASSIFICATION_TYPE":"U","NORAD_CAT_ID":39543,"ELEMENT_SET_NO":999,"REV_AT_EPOCH":51035,"BSTAR":0.00076613546,"MEAN_MOTION_DOT":9.8e-6,"MEAN_MOTION_DDOT":0},{"OBJECT_NAME":"FENGYUN 1C DEB","OBJECT_ID":"1999-025EWM","EPOCH":"2026-04-21T22:11:04.499232","MEAN_MOTION":14.05732743,"ECCENTRICITY":0.00547335,"INCLINATION":98.7261,"RA_OF_ASC_NODE":351.3938,"ARG_OF_PERICENTER":4.0782,"MEAN_ANOMALY":356.0822,"EPHEMERIS_TYPE":0,"CLASSIFICATION_TYPE":"U","NORAD_CAT_ID":39544,"ELEMENT_SET_NO":999,"REV_AT_EPOCH":58684,"BSTAR":0.00025562819,"MEAN_MOTION_DOT":3.8e-6,"MEAN_MOTION_DDOT":0},{"OBJECT_NAME":"FENGYUN 1C DEB","OBJECT_ID":"1999-025EWV","EPOCH":"2026-04-26T12:30:20.001312","MEAN_MOTION":13.65204568,"ECCENTRICITY":0.0310275,"INCLINATION":99.126,"RA_OF_ASC_NODE":31.6721,"ARG_OF_PERICENTER":110.9721,"MEAN_ANOMALY":252.4916,"EPHEMERIS_TYPE":0,"CLASSIFICATION_TYPE":"U","NORAD_CAT_ID":40689,"ELEMENT_SET_NO":999,"REV_AT_EPOCH":56722,"BSTAR":0.0014144546,"MEAN_MOTION_DOT":1.557e-5,"MEAN_MOTION_DDOT":0},{"OBJECT_NAME":"FENGYUN 1C DEB","OBJECT_ID":"1999-025EWX","EPOCH":"2026-04-21T08:11:51.154656","MEAN_MOTION":13.90016193,"ECCENTRICITY":0.01277889,"INCLINATION":99.0373,"RA_OF_ASC_NODE":145.0932,"ARG_OF_PERICENTER":319.3529,"MEAN_ANOMALY":39.8145,"EPHEMERIS_TYPE":0,"CLASSIFICATION_TYPE":"U","NORAD_CAT_ID":40691,"ELEMENT_SET_NO":999,"REV_AT_EPOCH":57236,"BSTAR":9.3359864e-5,"MEAN_MOTION_DOT":7.9e-7,"MEAN_MOTION_DDOT":0}]
