FENGYUN 1C DEB          
1 38803U 99025EUT 26103.47944424  .00002739  00000+0  11668-2 0  9991
2 38803  99.1343 117.1381 0063877  49.2948 311.3755 14.24919696619453
FENGYUN 1C DEB          
1 38809U 99025EUZ 26115.28877688  .00000986  00000+0  39233-3 0  9997
2 38809  98.5862 126.3174 0220627 302.5922  55.4124 14.18551101710998
FENGYUN 1C DEB          
1 38813U 99025EVD 26116.27929396  .00000839  00000+0  41367-3 0  9994
2 38813  99.3481 126.0277 0007265  97.8930 262.3070 14.20481330501608
FENGYUN 1C DEB          
1 38818U 99025EVJ 26114.42411162  .00000818  00000+0  26197-3 0  9992
2 38818  98.2760 171.4336 0088169  60.5773 315.3225 14.39876498691575
FENGYUN 1C DEB          
1 38824U 99025EVQ 26113.33676032  .00003988  00000+0  19633-2 0  9994
2 38824  99.2976 257.3866 0097457 191.9018 167.9850 14.15733626709984
FENGYUN 1C DEB          
1 38827U 99025EVT 26115.31069439  .00001574  00000+0  45416-3 0  9992
2 38827  98.3734 139.1073 0213410 275.2958  82.3912 14.33683110629739
FENGYUN 1C DEB          
1 38829U 99025EVV 26112.76046098  .00000691  00000+0  41638-3 0  9997
2 38829  98.7410 129.9550 0041074  21.1224 339.1631 14.09504760659787
FENGYUN 1C DEB          
1 38832U 99025EVY 26114.59682459  .00000839  00000+0  53173-3 0  9992
2 38832  99.2499 166.6502 0085444  36.2040 324.4869 14.05018501656237
FENGYUN 1C DEB          
1 39537U 99025EWE 26106.66945759  .00001248  00000+0  10196-2 0  9991
2 39537  99.1605 254.3970 0172712   7.2008 353.1570 13.84858963609853
FENGYUN 1C DEB          
1 39540U 99025EWH 26110.09387788  .00001605  00000+0  20409-2 0  9994
2 39540 106.1849  57.9340 0399890  80.0821 303.3729 13.37418198708149
FENGYUN 1C DEB          
1 39543U 99025EWL 26116.81665222  .00000980  00000+0  76614-3 0  9990
2 39543  99.0259 143.7762 0339041 146.5562 215.7507 13.70507030510356
FENGYUN 1C DEB          
1 39544U 99025EWM 26111.92435763  .00000380  00000+0  25563-3 0  9994
2 39544  98.7261 351.3938 0054733   4.0782 356.0822 14.05732743586848
FENGYUN 1C DEB          
1 40689U 99025EWV 26116.52106483  .00001557  00000+0  14145-2 0  9991
2 40689  99.1260  31.6721 0310275 110.9721 252.4916 13.65204568567226
FENGYUN 1C DEB          
1 40691U 99025EWX 26111.34156429  .00000079  00000+0  93360-4 0  9990
2 40691  99.0373 145.0932 0127788 319.3529  39.8145 13.90016193572368
